{
  "norad_id": 66422,
  "name": "STARLINK-35617",
  "history": [
    {
      "epoch": "2026-03-28T13:14:17.638656",
      "apogee_km": 484.04523864340354,
      "perigee_km": 481.9333839647843,
      "latitude_deg": 18.76771621752754,
      "longitude_deg": 155.15293183992617,
      "semi_major_axis_km": 6861.126311304094,
      "eccentricity": 0.0001539,
      "inclination_deg": 43.0029,
      "raan_deg": 168.0358,
      "arg_perigee_deg": 273.2352,
      "mean_anomaly_deg": 86.8323,
      "mean_motion_rev_day": 15.27599966
    }
  ]
}